[{"OBJECT_NAME":"SPARK 2","OBJECT_ID":"2016-081D","EPOCH":"2026-03-09T21:43:21.567936","MEAN_MOTION":14.59036805,"ECCENTRICITY":0.00241409,"INCLINATION":98.5438,"RA_OF_ASC_NODE":55.7698,"ARG_OF_PERICENTER":270.8992,"MEAN_ANOMALY":88.944,"EPHEMERIS_TYPE":0,"CLASSIFICATION_TYPE":"U","NORAD_CAT_ID":41901,"ELEMENT_SET_NO":999,"REV_AT_EPOCH":48964,"BSTAR":0.00022054708,"MEAN_MOTION_DOT":9.9e-6,"MEAN_MOTION_DDOT":0},{"OBJECT_NAME":"IRIDIUM 33 DEB","OBJECT_ID":"1997-051HN","EPOCH":"2026-03-09T05:58:38.625024","MEAN_MOTION":14.64663266,"ECCENTRICITY":0.00043092,"INCLINATION":86.3831,"RA_OF_ASC_NODE":352.4324,"ARG_OF_PERICENTER":11.063,"MEAN_ANOMALY":349.0676,"EPHEMERIS_TYPE":0,"CLASSIFICATION_TYPE":"U","NORAD_CAT_ID":34521,"ELEMENT_SET_NO":999,"REV_AT_EPOCH":89738,"BSTAR":0.0015796578,"MEAN_MOTION_DOT":8.424e-5,"MEAN_MOTION_DDOT":0}]
